{"type":"FeatureCollection","features":[{"type":"Feature","id":0,"geometry":{"type":"Point","coordinates":[112.02769371578528,-6.859494124314506]},"properties":{"FID":0,"Halte":"Terminal Kambang Putih","RuteBus":"Rute 1","JamOP":"05.45-07.30; 13.00-16.00"}},{"type":"Feature","id":1,"geometry":{"type":"Point","coordinates":[112.02107921324927,-6.8764471558349367]},"properties":{"FID":1,"Halte":"SMAN 4 Tuban","RuteBus":"Rute 1","JamOP":"05.45-07.30; 13.00-16.00"}},{"type":"Feature","id":2,"geometry":{"type":"Point","coordinates":[112.01836285013457,-6.884753425579051]},"properties":{"FID":2,"Halte":"SMPN 4 Tuban","RuteBus":"Rute 1","JamOP":"05.45-07.30; 13.00-16.00"}},{"type":"Feature","id":3,"geometry":{"type":"Point","coordinates":[112.01499922197256,-6.8948345993758204]},"properties":{"FID":3,"Halte":"Perempatan Kuthi","RuteBus":"Rute 1","JamOP":"05.45-07.30; 13.00-16.00"}},{"type":"Feature","id":4,"geometry":{"type":"Point","coordinates":[112.03998002497374,-6.8965585066870227]},"properties":{"FID":4,"Halte":"Masjid Al-Falah","RuteBus":"Rute 1","JamOP":"05.45-07.30; 13.00-16.00"}},{"type":"Feature","id":5,"geometry":{"type":"Point","coordinates":[112.0477913085432,-6.8943249284529857]},"properties":{"FID":5,"Halte":"Perempatan Kembangijo","RuteBus":"Rute 1","JamOP":"05.45-07.30; 13.00-16.00"}},{"type":"Feature","id":6,"geometry":{"type":"Point","coordinates":[112.04007339334525,-6.8927667919546662]},"properties":{"FID":6,"Halte":"Poltekkes","RuteBus":"Rute 1","JamOP":"05.45-07.30; 13.00-16.00"}},{"type":"Feature","id":7,"geometry":{"type":"Point","coordinates":[112.05227251186258,-6.8870735651011596]},"properties":{"FID":7,"Halte":"SMPN 2 Tuban","RuteBus":"Rute 1","JamOP":"05.45-07.30; 13.00-16.00"}},{"type":"Feature","id":8,"geometry":{"type":"Point","coordinates":[112.0581088881045,-6.890450880910568]},"properties":{"FID":8,"Halte":"Polsek Tuban","RuteBus":"Rute 1","JamOP":"05.45-07.30; 13.00-16.00"}},{"type":"Feature","id":9,"geometry":{"type":"Point","coordinates":[112.07243030711818,-6.8961933246535558]},"properties":{"FID":9,"Halte":"SMPN 6 Tuban","RuteBus":"Rute 1","JamOP":"05.45-07.30; 13.00-16.00"}},{"type":"Feature","id":10,"geometry":{"type":"Point","coordinates":[112.06834358735784,-6.9018619707707067]},"properties":{"FID":10,"Halte":"SMAN 1 Tuban","RuteBus":"Rute 1","JamOP":"05.45-07.30; 13.00-16.00"}},{"type":"Feature","id":11,"geometry":{"type":"Point","coordinates":[112.07482595978283,-6.9076591842603889]},"properties":{"FID":11,"Halte":"Pertigaan Perut Bumi","RuteBus":"Rute 1","JamOP":"05.45-07.30; 13.00-16.00"}},{"type":"Feature","id":12,"geometry":{"type":"Point","coordinates":[112.08047096812642,-6.9046109389924579]},"properties":{"FID":12,"Halte":"SMAN 3 Tuban","RuteBus":"Rute 1","JamOP":"05.45-07.30; 13.00-16.00"}},{"type":"Feature","id":13,"geometry":{"type":"Point","coordinates":[112.08099279686124,-6.9128314627451388]},"properties":{"FID":13,"Halte":"Semanding","RuteBus":"Rute 2","JamOP":"05.45-07.30; 13.00-16.00"}},{"type":"Feature","id":14,"geometry":{"type":"Point","coordinates":[112.07464551046918,-6.9079092051223725]},"properties":{"FID":14,"Halte":"Pertigaan Perut Bumi","RuteBus":"Rute 2","JamOP":"05.45-07.30; 13.00-16.00"}},{"type":"Feature","id":15,"geometry":{"type":"Point","coordinates":[112.0682672573766,-6.9018708216774929]},"properties":{"FID":15,"Halte":"SMAN 1 Tuban","RuteBus":"Rute 2","JamOP":"05.45-07.30; 13.00-16.00"}},{"type":"Feature","id":16,"geometry":{"type":"Point","coordinates":[112.05998058443166,-6.8990602128025564]},"properties":{"FID":16,"Halte":"Perempatan Pegadaian","RuteBus":"Rute 2","JamOP":"05.45-07.30; 13.00-16.00"}},{"type":"Feature","id":17,"geometry":{"type":"Point","coordinates":[112.04887430531691,-6.9008678252897973]},"properties":{"FID":17,"Halte":"SMAN 2 Tuban","RuteBus":"Rute 2","JamOP":"05.45-07.30; 13.00-16.00"}},{"type":"Feature","id":18,"geometry":{"type":"Point","coordinates":[112.05210398479676,-6.8874358143530312]},"properties":{"FID":18,"Halte":"MTsN 1 Tuban","RuteBus":"Rute 2","JamOP":"05.45-07.30; 13.00-16.00"}},{"type":"Feature","id":19,"geometry":{"type":"Point","coordinates":[112.05473524008018,-6.901575114164646]},"properties":{"FID":19,"Halte":"Pertigaan Merik","RuteBus":"Rute 2","JamOP":"05.45-07.30; 13.00-16.00"}},{"type":"Feature","id":20,"geometry":{"type":"Point","coordinates":[112.04574429228802,-6.8994206792736579]},"properties":{"FID":20,"Halte":"Polres Tuban","RuteBus":"Rute 2","JamOP":"05.45-07.30; 13.00-16.00"}},{"type":"Feature","id":21,"geometry":{"type":"Point","coordinates":[112.04015779720844,-6.8930486623881153]},"properties":{"FID":21,"Halte":"Kemenag Tuban","RuteBus":"Rute 2","JamOP":"05.45-07.30; 13.00-16.00"}},{"type":"Feature","id":22,"geometry":{"type":"Point","coordinates":[112.03985224874104,-6.8968075959867869]},"properties":{"FID":22,"Halte":"Masjid Al-Falah","RuteBus":"Rute 2","JamOP":"05.45-07.30; 13.00-16.00"}},{"type":"Feature","id":23,"geometry":{"type":"Point","coordinates":[112.01499742849251,-6.8947084416380982]},"properties":{"FID":23,"Halte":"Perempatan Kuthi","RuteBus":"Rute 2","JamOP":"05.45-07.30; 13.00-16.00"}},{"type":"Feature","id":24,"geometry":{"type":"Point","coordinates":[112.01826065129738,-6.8847204956047605]},"properties":{"FID":24,"Halte":"SMPN 4 Tuban","RuteBus":"Rute 2","JamOP":"05.45-07.30; 13.00-16.00"}},{"type":"Feature","id":25,"geometry":{"type":"Point","coordinates":[112.0208876034463,-6.8766289992568073]},"properties":{"FID":25,"Halte":"Mondokan","RuteBus":"Rute 2","JamOP":"05.45-07.30; 13.00-16.00"}},{"type":"Feature","id":26,"geometry":{"type":"Point","coordinates":[112.02754996833308,-6.8593157208483033]},"properties":{"FID":26,"Halte":"Terminal Kambang Putih","RuteBus":"Rute 2","JamOP":"05.45-07.30; 13.00-16.00"}}]}